[{"OBJECT_NAME":"STARLINK-36151","OBJECT_ID":"2025-299X","EPOCH":"2026-03-09T22:00:01.999584","MEAN_MOTION":15.36387486,"ECCENTRICITY":0.00011462,"INCLINATION":42.9991,"RA_OF_ASC_NODE":167.613,"ARG_OF_PERICENTER":265.1086,"MEAN_ANOMALY":42.0682,"EPHEMERIS_TYPE":0,"CLASSIFICATION_TYPE":"U","NORAD_CAT_ID":67123,"ELEMENT_SET_NO":999,"REV_AT_EPOCH":590,"BSTAR":-0.062696381,"MEAN_MOTION_DOT":-0.02019994,"MEAN_MOTION_DDOT":0},{"OBJECT_NAME":"ALSAT-3B","OBJECT_ID":"2026-021A","EPOCH":"2026-03-09T21:47:36.363264","MEAN_MOTION":15.23965648,"ECCENTRICITY":0.00137736,"INCLINATION":97.4662,"RA_OF_ASC_NODE":143.2461,"ARG_OF_PERICENTER":131.2824,"MEAN_ANOMALY":228.9602,"EPHEMERIS_TYPE":0,"CLASSIFICATION_TYPE":"U","NORAD_CAT_ID":67646,"ELEMENT_SET_NO":999,"REV_AT_EPOCH":575,"BSTAR":0.00034138739,"MEAN_MOTION_DOT":8.212e-5,"MEAN_MOTION_DDOT":0}]
